CCSDS_OMM_VERS = 2.0
CREATION_DATE  = 
ORIGINATOR     = 

OBJECT_NAME    = SL-14 R/B
OBJECT_ID      = 1986-046B
CENTER_NAME    = EARTH
REF_FRAME      = TEME
TIME_SYSTEM    = UTC
MEAN_ELEMENT_THEORY = SGP/SGP4

EPOCH          = 2025-12-11T12:02:58.624224
MEAN_MOTION    = 14.85482849
ECCENTRICITY   = .00236896
INCLINATION    = 82.4810
RA_OF_ASC_NODE = 163.4831
ARG_OF_PERICENTER = 156.2185
MEAN_ANOMALY   = 204.0131

EPHEMERIS_TYPE = 0
CLASSIFICATION_TYPE = U
NORAD_CAT_ID   = 16792
ELEMENT_SET_NO = 999
REV_AT_EPOCH   = 11331
BSTAR          = .98830225E-4
MEAN_MOTION_DOT = .881E-5
MEAN_MOTION_DDOT = 0

CCSDS_OMM_VERS = 2.0
CREATION_DATE  = 
ORIGINATOR     = 

OBJECT_NAME    = SL-14 R/B
OBJECT_ID      = 1986-055B
CENTER_NAME    = EARTH
REF_FRAME      = TEME
TIME_SYSTEM    = UTC
MEAN_ELEMENT_THEORY = SGP/SGP4

EPOCH          = 2025-12-11T13:26:37.450752
MEAN_MOTION    = 14.85529088
ECCENTRICITY   = .00174608
INCLINATION    = 82.5204
RA_OF_ASC_NODE = 209.4812
ARG_OF_PERICENTER = 263.6791
MEAN_ANOMALY   = 117.2819

EPHEMERIS_TYPE = 0
CLASSIFICATION_TYPE = U
NORAD_CAT_ID   = 16882
ELEMENT_SET_NO = 999
REV_AT_EPOCH   = 10628
BSTAR          = .78582768E-4
MEAN_MOTION_DOT = .704E-5
MEAN_MOTION_DDOT = 0

CCSDS_OMM_VERS = 2.0
CREATION_DATE  = 
ORIGINATOR     = 

OBJECT_NAME    = AJISAI (EGS)
OBJECT_ID      = 1986-061A
CENTER_NAME    = EARTH
REF_FRAME      = TEME
TIME_SYSTEM    = UTC
MEAN_ELEMENT_THEORY = SGP/SGP4

EPOCH          = 2025-12-11T14:59:52.255968
MEAN_MOTION    = 12.44514257
ECCENTRICITY   = .00112934
INCLINATION    = 50.0113
RA_OF_ASC_NODE = 4.1453
ARG_OF_PERICENTER = 63.1022
MEAN_ANOMALY   = 33.8807

EPHEMERIS_TYPE = 0
CLASSIFICATION_TYPE = U
NORAD_CAT_ID   = 16908
ELEMENT_SET_NO = 999
REV_AT_EPOCH   = 45703
BSTAR          = .34462344E-4
MEAN_MOTION_DOT = -.93E-6
MEAN_MOTION_DDOT = 0

CCSDS_OMM_VERS = 2.0
CREATION_DATE  = 
ORIGINATOR     = 

OBJECT_NAME    = COSMOS 1812
OBJECT_ID      = 1987-003A
CENTER_NAME    = EARTH
REF_FRAME      = TEME
TIME_SYSTEM    = UTC
MEAN_ELEMENT_THEORY = SGP/SGP4

EPOCH          = 2025-12-11T14:05:23.216064
MEAN_MOTION    = 15.75186624
ECCENTRICITY   = .0007274
INCLINATION    = 82.4868
RA_OF_ASC_NODE = 293.2637
ARG_OF_PERICENTER = 88.7566
MEAN_ANOMALY   = 271.4532

EPHEMERIS_TYPE = 0
CLASSIFICATION_TYPE = U
NORAD_CAT_ID   = 17295
ELEMENT_SET_NO = 999
REV_AT_EPOCH   = 13047
BSTAR          = .81763496E-3
MEAN_MOTION_DOT = .123865E-2
MEAN_MOTION_DDOT = 0

CCSDS_OMM_VERS = 2.0
CREATION_DATE  = 
ORIGINATOR     = 

OBJECT_NAME    = SL-14 R/B
OBJECT_ID      = 1987-024B
CENTER_NAME    = EARTH
REF_FRAME      = TEME
TIME_SYSTEM    = UTC
MEAN_ELEMENT_THEORY = SGP/SGP4

EPOCH          = 2025-12-11T12:00:09.331200
MEAN_MOTION    = 14.86021900
ECCENTRICITY   = .00179684
INCLINATION    = 82.5275
RA_OF_ASC_NODE = 175.6191
ARG_OF_PERICENTER = 188.3526
MEAN_ANOMALY   = 171.7395

EPHEMERIS_TYPE = 0
CLASSIFICATION_TYPE = U
NORAD_CAT_ID   = 17567
ELEMENT_SET_NO = 999
REV_AT_EPOCH   = 7503
BSTAR          = .87674564E-4
MEAN_MOTION_DOT = .793E-5
MEAN_MOTION_DDOT = 0

CCSDS_OMM_VERS = 2.0
CREATION_DATE  = 
ORIGINATOR     = 

OBJECT_NAME    = COSMOS 1833
OBJECT_ID      = 1987-027A
CENTER_NAME    = EARTH
REF_FRAME      = TEME
TIME_SYSTEM    = UTC
MEAN_ELEMENT_THEORY = SGP/SGP4

EPOCH          = 2025-12-11T12:20:38.520672
MEAN_MOTION    = 14.13021006
ECCENTRICITY   = .00224762
INCLINATION    = 70.9136
RA_OF_ASC_NODE = 151.3534
ARG_OF_PERICENTER = 333.4403
MEAN_ANOMALY   = 26.5565

EPHEMERIS_TYPE = 0
CLASSIFICATION_TYPE = U
NORAD_CAT_ID   = 17589
ELEMENT_SET_NO = 999
REV_AT_EPOCH   = 99785
BSTAR          = .10348044E-3
MEAN_MOTION_DOT = .145E-5
MEAN_MOTION_DDOT = 0

CCSDS_OMM_VERS = 2.0
CREATION_DATE  = 
ORIGINATOR     = 

OBJECT_NAME    = SL-16 R/B
OBJECT_ID      = 1987-027B
CENTER_NAME    = EARTH
REF_FRAME      = TEME
TIME_SYSTEM    = UTC
MEAN_ELEMENT_THEORY = SGP/SGP4

EPOCH          = 2025-12-11T14:27:36.715392
MEAN_MOTION    = 14.17152040
ECCENTRICITY   = .00074394
INCLINATION    = 71.0028
RA_OF_ASC_NODE = 102.1142
ARG_OF_PERICENTER = 260.6811
MEAN_ANOMALY   = 99.3472

EPHEMERIS_TYPE = 0
CLASSIFICATION_TYPE = U
NORAD_CAT_ID   = 17590
ELEMENT_SET_NO = 999
REV_AT_EPOCH   = 286
BSTAR          = .10600863E-4
MEAN_MOTION_DOT = -.27E-6
MEAN_MOTION_DDOT = 0

CCSDS_OMM_VERS = 2.0
CREATION_DATE  = 
ORIGINATOR     = 

OBJECT_NAME    = SL-14 R/B
OBJECT_ID      = 1987-038B
CENTER_NAME    = EARTH
REF_FRAME      = TEME
TIME_SYSTEM    = UTC
MEAN_ELEMENT_THEORY = SGP/SGP4

EPOCH          = 2025-12-11T09:10:39.195840
MEAN_MOTION    = 14.85259667
ECCENTRICITY   = .0020895
INCLINATION    = 82.5018
RA_OF_ASC_NODE = 19.9795
ARG_OF_PERICENTER = 96.2495
MEAN_ANOMALY   = 264.1102

EPHEMERIS_TYPE = 0
CLASSIFICATION_TYPE = U
NORAD_CAT_ID   = 17912
ELEMENT_SET_NO = 999
REV_AT_EPOCH   = 6612
BSTAR          = .81988939E-4
MEAN_MOTION_DOT = .73E-5
MEAN_MOTION_DDOT = 0

CCSDS_OMM_VERS = 2.0
CREATION_DATE  = 
ORIGINATOR     = 

OBJECT_NAME    = COSMOS 1844
OBJECT_ID      = 1987-041A
CENTER_NAME    = EARTH
REF_FRAME      = TEME
TIME_SYSTEM    = UTC
MEAN_ELEMENT_THEORY = SGP/SGP4

EPOCH          = 2025-12-11T08:38:08.320128
MEAN_MOTION    = 14.14526134
ECCENTRICITY   = .00301125
INCLINATION    = 70.8978
RA_OF_ASC_NODE = 220.4821
ARG_OF_PERICENTER = 159.3318
MEAN_ANOMALY   = 200.9030

EPHEMERIS_TYPE = 0
CLASSIFICATION_TYPE = U
NORAD_CAT_ID   = 17973
ELEMENT_SET_NO = 999
REV_AT_EPOCH   = 99109
BSTAR          = -.15802169E-4
MEAN_MOTION_DOT = -.79E-6
MEAN_MOTION_DDOT = 0

CCSDS_OMM_VERS = 2.0
CREATION_DATE  = 
ORIGINATOR     = 

OBJECT_NAME    = SL-14 R/B
OBJECT_ID      = 1987-055B
CENTER_NAME    = EARTH
REF_FRAME      = TEME
TIME_SYSTEM    = UTC
MEAN_ELEMENT_THEORY = SGP/SGP4

EPOCH          = 2025-12-11T12:13:17.078016
MEAN_MOTION    = 14.85519771
ECCENTRICITY   = .00194701
INCLINATION    = 82.5002
RA_OF_ASC_NODE = 72.1482
ARG_OF_PERICENTER = 307.6660
MEAN_ANOMALY   = 52.2790

EPHEMERIS_TYPE = 0
CLASSIFICATION_TYPE = U
NORAD_CAT_ID   = 18153
ELEMENT_SET_NO = 999
REV_AT_EPOCH   = 5684
BSTAR          = .96825878E-4
MEAN_MOTION_DOT = .862E-5
MEAN_MOTION_DDOT = 0

CCSDS_OMM_VERS = 2.0
CREATION_DATE  = 
ORIGINATOR     = 

OBJECT_NAME    = COSMOS 1867
OBJECT_ID      = 1987-060A
CENTER_NAME    = EARTH
REF_FRAME      = TEME
TIME_SYSTEM    = UTC
MEAN_ELEMENT_THEORY = SGP/SGP4

EPOCH          = 2025-12-11T06:36:41.474592
MEAN_MOTION    = 14.31485778
ECCENTRICITY   = .00136305
INCLINATION    = 65.0092
RA_OF_ASC_NODE = 194.3034
ARG_OF_PERICENTER = 270.9831
MEAN_ANOMALY   = 88.9692

EPHEMERIS_TYPE = 0
CLASSIFICATION_TYPE = U
NORAD_CAT_ID   = 18187
ELEMENT_SET_NO = 999
REV_AT_EPOCH   = 728
BSTAR          = .38006103E-4
MEAN_MOTION_DOT = .1E-7
MEAN_MOTION_DDOT = 0

CCSDS_OMM_VERS = 2.0
CREATION_DATE  = 
ORIGINATOR     = 

OBJECT_NAME    = SL-14 R/B
OBJECT_ID      = 1988-001B
CENTER_NAME    = EARTH
REF_FRAME      = TEME
TIME_SYSTEM    = UTC
MEAN_ELEMENT_THEORY = SGP/SGP4

EPOCH          = 2025-12-11T13:35:10.713408
MEAN_MOTION    = 14.85422138
ECCENTRICITY   = .00183714
INCLINATION    = 82.5132
RA_OF_ASC_NODE = 278.2510
ARG_OF_PERICENTER = 164.8486
MEAN_ANOMALY   = 195.3285

EPHEMERIS_TYPE = 0
CLASSIFICATION_TYPE = U
NORAD_CAT_ID   = 18749
ELEMENT_SET_NO = 999
REV_AT_EPOCH   = 2894
BSTAR          = .95470279E-4
MEAN_MOTION_DOT = .849E-5
MEAN_MOTION_DDOT = 0

