SL-14 R/B               
1 16792U 86046B   25345.50206741  .00000881  00000+0  98830-4 0  9991
2 16792  82.4810 163.4831 0023689 156.2185 204.0131 14.85482849113315
SL-14 R/B               
1 16882U 86055B   25345.56015568  .00000704  00000+0  78583-4 0  9999
2 16882  82.5204 209.4812 0017460 263.6791 117.2819 14.85529088106282
AJISAI (EGS)            
1 16908U 86061A   25345.62491037 -.00000093  00000+0  34462-4 0  9991
2 16908  50.0113   4.1453 0011293  63.1022  33.8807 12.44514257457036
COSMOS 1812             
1 17295U 87003A   25345.58707426  .00123865  00000+0  81763-3 0  9992
2 17295  82.4868 293.2637 0007274  88.7566 271.4532 15.75186624130478
SL-14 R/B               
1 17567U 87024B   25345.50010800  .00000793  00000+0  87675-4 0  9995
2 17567  82.5275 175.6191 0017968 188.3526 171.7395 14.86021900 75030
COSMOS 1833             
1 17589U 87027A   25345.51433473  .00000145  00000+0  10348-3 0  9991
2 17589  70.9136 151.3534 0022476 333.4403  26.5565 14.13021006997856
SL-16 R/B               
1 17590U 87027B   25345.60250828 -.00000027  00000+0  10601-4 0  9997
2 17590  71.0028 102.1142 0007439 260.6811  99.3472 14.17152040  2865
SL-14 R/B               
1 17912U 87038B   25345.38239810  .00000730  00000+0  81989-4 0  9997
2 17912  82.5018  19.9795 0020895  96.2495 264.1102 14.85259667 66129
COSMOS 1844             
1 17973U 87041A   25345.35981852 -.00000079  00000+0 -15802-4 0  9994
2 17973  70.8978 220.4821 0030112 159.3318 200.9030 14.14526134991097
SL-14 R/B               
1 18153U 87055B   25345.50922544  .00000862  00000+0  96826-4 0  9993
2 18153  82.5002  72.1482 0019470 307.6660  52.2790 14.85519771 56846
COSMOS 1867             
1 18187U 87060A   25345.27548003  .00000001  00000+0  38006-4 0  9995
2 18187  65.0092 194.3034 0013630 270.9831  88.9692 14.31485778  7283
SL-14 R/B               
1 18749U 88001B   25345.56609622  .00000849  00000+0  95470-4 0  9990
2 18749  82.5132 278.2510 0018371 164.8486 195.3285 14.85422138 28948
